[{"OBJECT_NAME":"IRIDIUM 102","OBJECT_ID":"2017-003D","EPOCH":"2026-03-09T16:58:10.285536","MEAN_MOTION":14.3421763,"ECCENTRICITY":0.00022591,"INCLINATION":86.3971,"RA_OF_ASC_NODE":130.0382,"ARG_OF_PERICENTER":95.9369,"MEAN_ANOMALY":264.2084,"EPHEMERIS_TYPE":0,"CLASSIFICATION_TYPE":"U","NORAD_CAT_ID":41920,"ELEMENT_SET_NO":999,"REV_AT_EPOCH":47902,"BSTAR":3.634738e-6,"MEAN_MOTION_DOT":3.0e-7,"MEAN_MOTION_DDOT":0},{"OBJECT_NAME":"COSMOS 1867","OBJECT_ID":"1987-060A","EPOCH":"2026-03-09T22:19:38.108352","MEAN_MOTION":14.3150308,"ECCENTRICITY":0.00144918,"INCLINATION":65.0112,"RA_OF_ASC_NODE":306.0319,"ARG_OF_PERICENTER":278.665,"MEAN_ANOMALY":81.2793,"EPHEMERIS_TYPE":0,"CLASSIFICATION_TYPE":"U","NORAD_CAT_ID":18187,"ELEMENT_SET_NO":999,"REV_AT_EPOCH":1997,"BSTAR":3.4837182e-5,"MEAN_MOTION_DOT":-7.0e-8,"MEAN_MOTION_DDOT":0}]
